{"fetched_at":"2026-07-12T17:32:24.168Z","source":"https://celestrak.org/NORAD/elements/gp.php?GROUP=oneweb&FORMAT=JSON","constellation":"oneweb","records":[{"OBJECT_NAME":"ONEWEB-0311","OBJECT_ID":"2021-075Y","EPOCH":"2026-07-12T12:49:31.590624","CLASSIFICATION_TYPE":"U","MEAN_MOTION":13.17648154,"ECCENTRICITY":0.0001739,"INCLINATION":87.914,"RA_OF_ASC_NODE":0.8199,"ARG_OF_PERICENTER":73.9254,"MEAN_ANOMALY":286.2069,"EPHEMERIS_TYPE":0,"NORAD_CAT_ID":49097,"ELEMENT_SET_NO":999,"REV_AT_EPOCH":23696,"BSTAR":0.000040379,"MEAN_MOTION_DOT":2.9e-7,"MEAN_MOTION_DDOT":0},{"OBJECT_NAME":"ONEWEB-0312","OBJECT_ID":"2021-075Z","EPOCH":"2026-07-12T11:22:03.455904","CLASSIFICATION_TYPE":"U","MEAN_MOTION":13.17648292,"ECCENTRICITY":0.0001974,"INCLINATION":87.9131,"RA_OF_ASC_NODE":0.8431,"ARG_OF_PERICENTER":81.393,"MEAN_ANOMALY":278.7425,"EPHEMERIS_TYPE":0,"NORAD_CAT_ID":49098,"ELEMENT_SET_NO":999,"REV_AT_EPOCH":23693,"BSTAR":-0.000090709,"MEAN_MOTION_DOT":-2.2e-7,"MEAN_MOTION_DDOT":0},{"OBJECT_NAME":"ONEWEB-0313","OBJECT_ID":"2021-075AA","EPOCH":"2026-07-12T11:29:08.251008","CLASSIFICATION_TYPE":"U","MEAN_MOTION":13.17650577,"ECCENTRICITY":0.0001765,"INCLINATION":87.9123,"RA_OF_ASC_NODE":0.8454,"ARG_OF_PERICENTER":87.8506,"MEAN_ANOMALY":272.2828,"EPHEMERIS_TYPE":0,"NORAD_CAT_ID":49099,"ELEMENT_SET_NO":999,"REV_AT_EPOCH":23692,"BSTAR":0.00018707,"MEAN_MOTION_DOT":8.6e-7,"MEAN_MOTION_DDOT":0},{"OBJECT_NAME":"ONEWEB-0314","OBJECT_ID":"2021-075AB","EPOCH":"2026-07-12T12:30:17.670240","CLASSIFICATION_TYPE":"U","MEAN_MOTION":13.17503355,"ECCENTRICITY":0.0001475,"INCLINATION":87.9162,"RA_OF_ASC_NODE":0.8119,"ARG_OF_PERICENTER":75.4447,"MEAN_ANOMALY":284.6848,"EPHEMERIS_TYPE":0,"NORAD_CAT_ID":49100,"ELEMENT_SET_NO":999,"REV_AT_EPOCH":23690,"BSTAR":-0.050631,"MEAN_MOTION_DOT":-0.00019561,"MEAN_MOTION_DDOT":0},{"OBJECT_NAME":"ONEWEB-0315","OBJECT_ID":"2021-075AC","EPOCH":"2026-07-12T10:37:55.707168","CLASSIFICATION_TYPE":"U","MEAN_MOTION":13.1244204,"ECCENTRICITY":0.0001667,"INCLINATION":87.8967,"RA_OF_ASC_NODE":345.6235,"ARG_OF_PERICENTER":84.3948,"MEAN_ANOMALY":275.7371,"EPHEMERIS_TYPE":0,"NORAD_CAT_ID":49101,"ELEMENT_SET_NO":999,"REV_AT_EPOCH":23848,"BSTAR":-0.00080125,"MEAN_MOTION_DOT":-0.00000276,"MEAN_MOTION_DDOT":0},{"OBJECT_NAME":"ONEWEB-0316","OBJECT_ID":"2021-075AD","EPOCH":"2026-07-11T19:39:05.133024","CLASSIFICATION_TYPE":"U","MEAN_MOTION":13.18668336,"ECCENTRICITY":0.00024195,"INCLINATION":87.9207,"RA_OF_ASC_NODE":330.5592,"ARG_OF_PERICENTER":107.1739,"MEAN_ANOMALY":252.9658,"EPHEMERIS_TYPE":0,"NORAD_CAT_ID":49102,"ELEMENT_SET_NO":999,"REV_AT_EPOCH":24045,"BSTAR":0.0048682106,"MEAN_MOTION_DOT":0.00001932,"MEAN_MOTION_DDOT":0},{"OBJECT_NAME":"ONEWEB-0317","OBJECT_ID":"2021-075AE","EPOCH":"2026-07-12T10:42:48.468384","CLASSIFICATION_TYPE":"U","MEAN_MOTION":13.12442302,"ECCENTRICITY":0.000244,"INCLINATION":87.8963,"RA_OF_ASC_NODE":345.6462,"ARG_OF_PERICENTER":109.5683,"MEAN_ANOMALY":250.5709,"EPHEMERIS_TYPE":0,"NORAD_CAT_ID":49103,"ELEMENT_SET_NO":999,"REV_AT_EPOCH":23850,"BSTAR":-0.00092351,"MEAN_MOTION_DOT":-0.00000319,"MEAN_MOTION_DDOT":0},{"OBJECT_NAME":"ONEWEB-0318","OBJECT_ID":"2021-075AF","EPOCH":"2026-07-12T08:18:52.447968","CLASSIFICATION_TYPE":"U","MEAN_MOTION":13.18686565,"ECCENTRICITY":0.0001828,"INCLINATION":87.9191,"RA_OF_ASC_NODE":330.4543,"ARG_OF_PERICENTER":91.0866,"MEAN_ANOMALY":269.0476,"EPHEMERIS_TYPE":0,"NORAD_CAT_ID":49104,"ELEMENT_SET_NO":999,"REV_AT_EPOCH":24048,"BSTAR":0.000090677,"MEAN_MOTION_DOT":4.9e-7,"MEAN_MOTION_DDOT":0},{"OBJECT_NAME":"ONEWEB-0319","OBJECT_ID":"2021-075AG","EPOCH":"2026-07-12T11:02:36.248064","CLASSIFICATION_TYPE":"U","MEAN_MOTION":13.17647868,"ECCENTRICITY":0.000175,"INCLINATION":87.9151,"RA_OF_ASC_NODE":0.8399,"ARG_OF_PERICENTER":85.1173,"MEAN_ANOMALY":275.0158,"EPHEMERIS_TYPE":0,"NORAD_CAT_ID":49105,"ELEMENT_SET_NO":999,"REV_AT_EPOCH":23693,"BSTAR":0.000091992,"MEAN_MOTION_DOT":4.9e-7,"MEAN_MOTION_DDOT":0},{"OBJECT_NAME":"ONEWEB-0323","OBJECT_ID":"2021-075AH","EPOCH":"2026-07-12T10:15:58.898592","CLASSIFICATION_TYPE":"U","MEAN_MOTION":13.12442107,"ECCENTRICITY":0.0001754,"INCLINATION":87.8968,"RA_OF_ASC_NODE":345.6314,"ARG_OF_PERICENTER":78.1065,"MEAN_ANOMALY":282.026,"EPHEMERIS_TYPE":0,"NORAD_CAT_ID":49106,"ELEMENT_SET_NO":999,"REV_AT_EPOCH":23786,"BSTAR":0.00063189,"MEAN_MOTION_DOT":0.0000024,"MEAN_MOTION_DDOT":0},{"OBJECT_NAME":"ONEWEB-0329","OBJECT_ID":"2021-075AJ","EPOCH":"2026-07-12T11:14:44.928384","CLASSIFICATION_TYPE":"U","MEAN_MOTION":13.17650525,"ECCENTRICITY":0.0001921,"INCLINATION":87.9142,"RA_OF_ASC_NODE":0.8391,"ARG_OF_PERICENTER":87.2735,"MEAN_ANOMALY":272.8617,"EPHEMERIS_TYPE":0,"NORAD_CAT_ID":49107,"ELEMENT_SET_NO":999,"REV_AT_EPOCH":23691,"BSTAR":0.00005567,"MEAN_MOTION_DOT":3.4e-7,"MEAN_MOTION_DDOT":0},{"OBJECT_NAME":"ONEWEB-0330","OBJECT_ID":"2021-075AK","EPOCH":"2026-07-12T11:19:47.356896","CLASSIFICATION_TYPE":"U","MEAN_MOTION":13.17647263,"ECCENTRICITY":0.0002027,"INCLINATION":87.9143,"RA_OF_ASC_NODE":0.8495,"ARG_OF_PERICENTER":89.3316,"MEAN_ANOMALY":270.8048,"EPHEMERIS_TYPE":0,"NORAD_CAT_ID":49108,"ELEMENT_SET_NO":999,"REV_AT_EPOCH":23695,"BSTAR":0.000094872,"MEAN_MOTION_DOT":5e-7,"MEAN_MOTION_DDOT":0},{"OBJECT_NAME":"ONEWEB-0292","OBJECT_ID":"2021-083A","EPOCH":"2026-07-11T20:19:48.982944","CLASSIFICATION_TYPE":"U","MEAN_MOTION":13.13470926,"ECCENTRICITY":0.00018555,"INCLINATION":87.8972,"RA_OF_ASC_NODE":315.3295,"ARG_OF_PERICENTER":95.2017,"MEAN_ANOMALY":264.9324,"EPHEMERIS_TYPE":0,"NORAD_CAT_ID":49186,"ELEMENT_SET_NO":999,"REV_AT_EPOCH":23416,"BSTAR":0.000018938412,"MEAN_MOTION_DOT":2e-7,"MEAN_MOTION_DDOT":0},{"OBJECT_NAME":"ONEWEB-0303","OBJECT_ID":"2021-083B","EPOCH":"2026-07-12T08:13:59.727360","CLASSIFICATION_TYPE":"U","MEAN_MOTION":13.18685182,"ECCENTRICITY":0.000182,"INCLINATION":87.9194,"RA_OF_ASC_NODE":330.4536,"ARG_OF_PERICENTER":92.3571,"MEAN_ANOMALY":267.777,"EPHEMERIS_TYPE":0,"NORAD_CAT_ID":49187,"ELEMENT_SET_NO":999,"REV_AT_EPOCH":23329,"BSTAR":-0.00053187,"MEAN_MOTION_DOT":-0.00000197,"MEAN_MOTION_DDOT":0},{"OBJECT_NAME":"ONEWEB-0306","OBJECT_ID":"2021-083C","EPOCH":"2026-07-12T07:59:26.580192","CLASSIFICATION_TYPE":"U","MEAN_MOTION":13.18684991,"ECCENTRICITY":0.0002079,"INCLINATION":87.9195,"RA_OF_ASC_NODE":330.4439,"ARG_OF_PERICENTER":100.0652,"MEAN_ANOMALY":260.0715,"EPHEMERIS_TYPE":0,"NORAD_CAT_ID":49188,"ELEMENT_SET_NO":999,"REV_AT_EPOCH":23333,"BSTAR":0.00021097,"MEAN_MOTION_DOT":9.6e-7,"MEAN_MOTION_DDOT":0},{"OBJECT_NAME":"ONEWEB-0307","OBJECT_ID":"2021-083D","EPOCH":"2026-07-11T20:11:15.968256","CLASSIFICATION_TYPE":"U","MEAN_MOTION":13.13472092,"ECCENTRICITY":0.00018509,"INCLINATION":87.8973,"RA_OF_ASC_NODE":315.3288,"ARG_OF_PERICENTER":96.1041,"MEAN_ANOMALY":264.0299,"EPHEMERIS_TYPE":0,"NORAD_CAT_ID":49189,"ELEMENT_SET_NO":999,"REV_AT_EPOCH":23416,"BSTAR":-0.0004854524,"MEAN_MOTION_DOT":-0.00000165,"MEAN_MOTION_DDOT":0}]}
